KUIPER-00035            
1 63748U 25088AA  25328.42838927  .00004964  00000+0  67912-3 0  9994
2 63748  51.8994 219.5778 0007108  81.4448 278.7319 14.79961971 31926
KUIPER-00037            
1 63749U 25088AB  25328.42741470  .00002585  00000+0  36593-3 0  9999
2 63749  51.8992 218.5040 0008595  36.9752 323.1801 14.80183183 32723
KUIPER-00038            
1 63750U 25088AC  25327.97347750  .00003154  00000+0  44247-3 0  9991
2 63750  51.9000 205.5530 0008171  83.6771 276.5122 14.79944965 31868
KUIPER-00039            
1 64500U 25134A   25328.41712024  .00004105  00000+0  56415-3 0  9994
2 64500  51.9012 338.5770 0011408 305.9025  54.0878 14.80143519 24482
KUIPER-00040            
1 64501U 25134B   25328.27115299  .00005323  00000+0  72501-3 0  9997
2 64501  51.9016 350.3967 0016985 279.3164  80.5878 14.79959464 24307
KUIPER-00041            
1 64502U 25134C   25328.27016247  .00005241  00000+0  71496-3 0  9992
2 64502  51.9010 351.7574 0013468 277.2314  82.7117 14.79953939 24286
KUIPER-00042            
1 64503U 25134D   25326.38206992 -.00011002  00000+0 -14142-2 0  9999
2 64503  51.9007 356.1072 0012006 279.8618  80.0988 14.79935043 24066
KUIPER-00043            
1 64504U 25134E   25328.41699358 -.00020510  00000+0 -26718-2 0  9994
2 64504  51.9029 339.5528 0003257 287.5952  72.4654 14.79891299 24471
