<?xml version="1.0" encoding="UTF-8"?>
<ndm xmlns:xsi="http://www.w3.org/2001/XMLSchema-instance" xsi:noNamespaceSchemaLocation="https://sanaregistry.org/r/ndmxml_unqualified/ndmxml-2.0.0-master-2.0.xsd">
<omm id="CCSDS_OMM_VERS" version="2.0">
<header><CREATION_DATE/><ORIGINATOR/></header><body><segment><metadata><OBJECT_NAME>KUIPER-00035</OBJECT_NAME><OBJECT_ID>2025-088AA</OBJECT_ID><CENTER_NAME>EARTH</CENTER_NAME><REF_FRAME>TEME</REF_FRAME><TIME_SYSTEM>UTC</TIME_SYSTEM><MEAN_ELEMENT_THEORY>SGP4</MEAN_ELEMENT_THEORY></metadata><data><meanElements><EPOCH>2025-11-24T10:16:52.832928</EPOCH><MEAN_MOTION>14.79961971</MEAN_MOTION><ECCENTRICITY>.0007108</ECCENTRICITY><INCLINATION>51.8994</INCLINATION><RA_OF_ASC_NODE>219.5778</RA_OF_ASC_NODE><ARG_OF_PERICENTER>81.4448</ARG_OF_PERICENTER><MEAN_ANOMALY>278.7319</MEAN_ANOMALY></meanElements><tleParameters><EPHEMERIS_TYPE>0</EPHEMERIS_TYPE><CLASSIFICATION_TYPE>U</CLASSIFICATION_TYPE><NORAD_CAT_ID>63748</NORAD_CAT_ID><ELEMENT_SET_NO>999</ELEMENT_SET_NO><REV_AT_EPOCH>3192</REV_AT_EPOCH><BSTAR>.67912E-3</BSTAR><MEAN_MOTION_DOT>.4964E-4</MEAN_MOTION_DOT><MEAN_MOTION_DDOT>0</MEAN_MOTION_DDOT></tleParameters></data></segment></body></omm>
<omm id="CCSDS_OMM_VERS" version="2.0">
<header><CREATION_DATE/><ORIGINATOR/></header><body><segment><metadata><OBJECT_NAME>KUIPER-00037</OBJECT_NAME><OBJECT_ID>2025-088AB</OBJECT_ID><CENTER_NAME>EARTH</CENTER_NAME><REF_FRAME>TEME</REF_FRAME><TIME_SYSTEM>UTC</TIME_SYSTEM><MEAN_ELEMENT_THEORY>SGP4</MEAN_ELEMENT_THEORY></metadata><data><meanElements><EPOCH>2025-11-24T10:15:28.630080</EPOCH><MEAN_MOTION>14.80183183</MEAN_MOTION><ECCENTRICITY>.0008595</ECCENTRICITY><INCLINATION>51.8992</INCLINATION><RA_OF_ASC_NODE>218.5040</RA_OF_ASC_NODE><ARG_OF_PERICENTER>36.9752</ARG_OF_PERICENTER><MEAN_ANOMALY>323.1801</MEAN_ANOMALY></meanElements><tleParameters><EPHEMERIS_TYPE>0</EPHEMERIS_TYPE><CLASSIFICATION_TYPE>U</CLASSIFICATION_TYPE><NORAD_CAT_ID>63749</NORAD_CAT_ID><ELEMENT_SET_NO>999</ELEMENT_SET_NO><REV_AT_EPOCH>3272</REV_AT_EPOCH><BSTAR>.36593E-3</BSTAR><MEAN_MOTION_DOT>.2585E-4</MEAN_MOTION_DOT><MEAN_MOTION_DDOT>0</MEAN_MOTION_DDOT></tleParameters></data></segment></body></omm>
<omm id="CCSDS_OMM_VERS" version="2.0">
<header><CREATION_DATE/><ORIGINATOR/></header><body><segment><metadata><OBJECT_NAME>KUIPER-00038</OBJECT_NAME><OBJECT_ID>2025-088AC</OBJECT_ID><CENTER_NAME>EARTH</CENTER_NAME><REF_FRAME>TEME</REF_FRAME><TIME_SYSTEM>UTC</TIME_SYSTEM><MEAN_ELEMENT_THEORY>SGP4</MEAN_ELEMENT_THEORY></metadata><data><meanElements><EPOCH>2025-11-23T23:21:48.456000</EPOCH><MEAN_MOTION>14.79944965</MEAN_MOTION><ECCENTRICITY>.00081711</ECCENTRICITY><INCLINATION>51.9000</INCLINATION><RA_OF_ASC_NODE>205.5530</RA_OF_ASC_NODE><ARG_OF_PERICENTER>83.6771</ARG_OF_PERICENTER><MEAN_ANOMALY>276.5122</MEAN_ANOMALY></meanElements><tleParameters><EPHEMERIS_TYPE>0</EPHEMERIS_TYPE><CLASSIFICATION_TYPE>U</CLASSIFICATION_TYPE><NORAD_CAT_ID>63750</NORAD_CAT_ID><ELEMENT_SET_NO>999</ELEMENT_SET_NO><REV_AT_EPOCH>3186</REV_AT_EPOCH><BSTAR>.44247299E-3</BSTAR><MEAN_MOTION_DOT>.3154E-4</MEAN_MOTION_DOT><MEAN_MOTION_DDOT>0</MEAN_MOTION_DDOT></tleParameters></data></segment></body></omm>
<omm id="CCSDS_OMM_VERS" version="2.0">
<header><CREATION_DATE/><ORIGINATOR/></header><body><segment><metadata><OBJECT_NAME>KUIPER-00039</OBJECT_NAME><OBJECT_ID>2025-134A</OBJECT_ID><CENTER_NAME>EARTH</CENTER_NAME><REF_FRAME>TEME</REF_FRAME><TIME_SYSTEM>UTC</TIME_SYSTEM><MEAN_ELEMENT_THEORY>SGP4</MEAN_ELEMENT_THEORY></metadata><data><meanElements><EPOCH>2025-11-24T10:00:39.188736</EPOCH><MEAN_MOTION>14.80143519</MEAN_MOTION><ECCENTRICITY>.0011408</ECCENTRICITY><INCLINATION>51.9012</INCLINATION><RA_OF_ASC_NODE>338.5770</RA_OF_ASC_NODE><ARG_OF_PERICENTER>305.9025</ARG_OF_PERICENTER><MEAN_ANOMALY>54.0878</MEAN_ANOMALY></meanElements><tleParameters><EPHEMERIS_TYPE>0</EPHEMERIS_TYPE><CLASSIFICATION_TYPE>U</CLASSIFICATION_TYPE><NORAD_CAT_ID>64500</NORAD_CAT_ID><ELEMENT_SET_NO>999</ELEMENT_SET_NO><REV_AT_EPOCH>2448</REV_AT_EPOCH><BSTAR>.56415E-3</BSTAR><MEAN_MOTION_DOT>.4105E-4</MEAN_MOTION_DOT><MEAN_MOTION_DDOT>0</MEAN_MOTION_DDOT></tleParameters></data></segment></body></omm>
<omm id="CCSDS_OMM_VERS" version="2.0">
<header><CREATION_DATE/><ORIGINATOR/></header><body><segment><metadata><OBJECT_NAME>KUIPER-00040</OBJECT_NAME><OBJECT_ID>2025-134B</OBJECT_ID><CENTER_NAME>EARTH</CENTER_NAME><REF_FRAME>TEME</REF_FRAME><TIME_SYSTEM>UTC</TIME_SYSTEM><MEAN_ELEMENT_THEORY>SGP4</MEAN_ELEMENT_THEORY></metadata><data><meanElements><EPOCH>2025-11-24T06:30:27.618336</EPOCH><MEAN_MOTION>14.79959464</MEAN_MOTION><ECCENTRICITY>.0016985</ECCENTRICITY><INCLINATION>51.9016</INCLINATION><RA_OF_ASC_NODE>350.3967</RA_OF_ASC_NODE><ARG_OF_PERICENTER>279.3164</ARG_OF_PERICENTER><MEAN_ANOMALY>80.5878</MEAN_ANOMALY></meanElements><tleParameters><EPHEMERIS_TYPE>0</EPHEMERIS_TYPE><CLASSIFICATION_TYPE>U</CLASSIFICATION_TYPE><NORAD_CAT_ID>64501</NORAD_CAT_ID><ELEMENT_SET_NO>999</ELEMENT_SET_NO><REV_AT_EPOCH>2430</REV_AT_EPOCH><BSTAR>.72501E-3</BSTAR><MEAN_MOTION_DOT>.5323E-4</MEAN_MOTION_DOT><MEAN_MOTION_DDOT>0</MEAN_MOTION_DDOT></tleParameters></data></segment></body></omm>
<omm id="CCSDS_OMM_VERS" version="2.0">
<header><CREATION_DATE/><ORIGINATOR/></header><body><segment><metadata><OBJECT_NAME>KUIPER-00041</OBJECT_NAME><OBJECT_ID>2025-134C</OBJECT_ID><CENTER_NAME>EARTH</CENTER_NAME><REF_FRAME>TEME</REF_FRAME><TIME_SYSTEM>UTC</TIME_SYSTEM><MEAN_ELEMENT_THEORY>SGP4</MEAN_ELEMENT_THEORY></metadata><data><meanElements><EPOCH>2025-11-24T06:29:02.037408</EPOCH><MEAN_MOTION>14.79953939</MEAN_MOTION><ECCENTRICITY>.0013468</ECCENTRICITY><INCLINATION>51.9010</INCLINATION><RA_OF_ASC_NODE>351.7574</RA_OF_ASC_NODE><ARG_OF_PERICENTER>277.2314</ARG_OF_PERICENTER><MEAN_ANOMALY>82.7117</MEAN_ANOMALY></meanElements><tleParameters><EPHEMERIS_TYPE>0</EPHEMERIS_TYPE><CLASSIFICATION_TYPE>U</CLASSIFICATION_TYPE><NORAD_CAT_ID>64502</NORAD_CAT_ID><ELEMENT_SET_NO>999</ELEMENT_SET_NO><REV_AT_EPOCH>2428</REV_AT_EPOCH><BSTAR>.71496E-3</BSTAR><MEAN_MOTION_DOT>.5241E-4</MEAN_MOTION_DOT><MEAN_MOTION_DDOT>0</MEAN_MOTION_DDOT></tleParameters></data></segment></body></omm>
<omm id="CCSDS_OMM_VERS" version="2.0">
<header><CREATION_DATE/><ORIGINATOR/></header><body><segment><metadata><OBJECT_NAME>KUIPER-00042</OBJECT_NAME><OBJECT_ID>2025-134D</OBJECT_ID><CENTER_NAME>EARTH</CENTER_NAME><REF_FRAME>TEME</REF_FRAME><TIME_SYSTEM>UTC</TIME_SYSTEM><MEAN_ELEMENT_THEORY>SGP4</MEAN_ELEMENT_THEORY></metadata><data><meanElements><EPOCH>2025-11-22T09:10:10.841088</EPOCH><MEAN_MOTION>14.79935043</MEAN_MOTION><ECCENTRICITY>.00120067</ECCENTRICITY><INCLINATION>51.9007</INCLINATION><RA_OF_ASC_NODE>356.1072</RA_OF_ASC_NODE><ARG_OF_PERICENTER>279.8618</ARG_OF_PERICENTER><MEAN_ANOMALY>80.0988</MEAN_ANOMALY></meanElements><tleParameters><EPHEMERIS_TYPE>0</EPHEMERIS_TYPE><CLASSIFICATION_TYPE>U</CLASSIFICATION_TYPE><NORAD_CAT_ID>64503</NORAD_CAT_ID><ELEMENT_SET_NO>999</ELEMENT_SET_NO><REV_AT_EPOCH>2406</REV_AT_EPOCH><BSTAR>-.14142063E-2</BSTAR><MEAN_MOTION_DOT>-.11002E-3</MEAN_MOTION_DOT><MEAN_MOTION_DDOT>0</MEAN_MOTION_DDOT></tleParameters></data></segment></body></omm>
<omm id="CCSDS_OMM_VERS" version="2.0">
<header><CREATION_DATE/><ORIGINATOR/></header><body><segment><metadata><OBJECT_NAME>KUIPER-00043</OBJECT_NAME><OBJECT_ID>2025-134E</OBJECT_ID><CENTER_NAME>EARTH</CENTER_NAME><REF_FRAME>TEME</REF_FRAME><TIME_SYSTEM>UTC</TIME_SYSTEM><MEAN_ELEMENT_THEORY>SGP4</MEAN_ELEMENT_THEORY></metadata><data><meanElements><EPOCH>2025-11-24T10:00:28.245312</EPOCH><MEAN_MOTION>14.79891299</MEAN_MOTION><ECCENTRICITY>.0003257</ECCENTRICITY><INCLINATION>51.9029</INCLINATION><RA_OF_ASC_NODE>339.5528</RA_OF_ASC_NODE><ARG_OF_PERICENTER>287.5952</ARG_OF_PERICENTER><MEAN_ANOMALY>72.4654</MEAN_ANOMALY></meanElements><tleParameters><EPHEMERIS_TYPE>0</EPHEMERIS_TYPE><CLASSIFICATION_TYPE>U</CLASSIFICATION_TYPE><NORAD_CAT_ID>64504</NORAD_CAT_ID><ELEMENT_SET_NO>999</ELEMENT_SET_NO><REV_AT_EPOCH>2447</REV_AT_EPOCH><BSTAR>-.26718E-2</BSTAR><MEAN_MOTION_DOT>-.2051E-3</MEAN_MOTION_DOT><MEAN_MOTION_DDOT>0</MEAN_MOTION_DDOT></tleParameters></data></segment></body></omm>

</ndm>
